E-SPACE_L_00021024-200
1 18479U 25471RI  26075.70019676  .00000000  00000+0  00000-0 0  9993
2 18479  81.0000 230.0000 0000000   0.0000 201.5556 14.84008413    13
E-SPACE_L_00021024-201
1 18480U 23310TH  26075.70019676  .00000000  00000+0  00000-0 0  9995
2 18480  81.0000 230.0000 0000000   0.0000 202.5556 14.84008413    16
E-SPACE_L_00021024-202
1 18481U 22469OR  26075.70019676  .00000000  00000+0  00000-0 0  9990
2 18481  81.0000 230.0000 0000000   0.0000 203.5556 14.84008413    18
E-SPACE_L_00021024-203
1 18482U 25692NB  26075.70019676  .00000000  00000+0  00000-0 0  9992
2 18482  81.0000 230.0000 0000000   0.0000 204.5556 14.84008413    10
E-SPACE_L_00021024-204
1 18483U 23874NS  26075.70019676  .00000000  00000+0  00000-0 0  9993
2 18483  81.0000 230.0000 0000000   0.0000 205.5556 14.84008413    12
E-SPACE_L_00021024-205
1 18484U 26342VY  26075.70019676  .00000000  00000+0  00000-0 0  9997
2 18484  81.0000 230.0000 0000000   0.0000 206.5556 14.84008413    14
E-SPACE_L_00021024-206
1 18485U 24384HA  26075.70019676  .00000000  00000+0  00000-0 0  9992
2 18485  81.0000 230.0000 0000000   0.0000 207.5556 14.84008413    16
E-SPACE_L_00021024-207
1 18486U 24937ST  26075.70019676  .00000000  00000+0  00000-0 0  9997
2 18486  81.0000 230.0000 0000000   0.0000 208.5556 14.84008413    18
E-SPACE_L_00021024-208
1 18487U 24229XO  26075.70019676  .00000000  00000+0  00000-0 0  9992
2 18487  81.0000 230.0000 0000000   0.0000 209.5556 14.84008413    10
E-SPACE_L_00021024-209
1 18488U 25416IO  26075.70019676  .00000000  00000+0  00000-0 0  9992
2 18488  81.0000 230.0000 0000000   0.0000 210.5556 14.84008413    13
E-SPACE_L_00021024-210
1 18489U 25561H   26075.70019676  .00000000  00000+0  00000-0 0  9994
2 18489  81.0000 230.0000 0000000   0.0000 211.5556 14.84008413    15
E-SPACE_L_00021024-211
1 18490U 23572XD  26075.70019676  .00000000  00000+0  00000-0 0  9996
2 18490  81.0000 230.0000 0000000   0.0000 212.5556 14.84008413    18
E-SPACE_L_00021024-212
1 18491U 25978WZ  26075.70019676  .00000000  00000+0  00000-0 0  9999
2 18491  81.0000 230.0000 0000000   0.0000 213.5556 14.84008413    10
E-SPACE_L_00021024-213
1 18492U 25120AN  26075.70019676  .00000000  00000+0  00000-0 0  9999
2 18492  81.0000 230.0000 0000000   0.0000 214.5556 14.84008413    12
E-SPACE_L_00021024-214
1 18493U 26836WZ  26075.70019676  .00000000  00000+0  00000-0 0  9995
2 18493  81.0000 230.0000 0000000   0.0000 215.5556 14.84008413    14
E-SPACE_L_00021024-215
1 18494U 22424BZ  26075.70019676  .00000000  00000+0  00000-0 0  9995
2 18494  81.0000 230.0000 0000000   0.0000 216.5556 14.84008413    16
E-SPACE_L_00021024-216
1 18495U 22917UI  26075.70019676  .00000000  00000+0  00000-0 0  9993
2 18495  81.0000 230.0000 0000000   0.0000 217.5556 14.84008413    18
E-SPACE_L_00021024-217
1 18496U 23929TA  26075.70019676  .00000000  00000+0  00000-0 0  9998
2 18496  81.0000 230.0000 0000000   0.0000 218.5556 14.84008413    10
E-SPACE_L_00021024-218
1 18497U 26597VE  26075.70019676  .00000000  00000+0  00000-0 0  9993
2 18497  81.0000 230.0000 0000000   0.0000 219.5556 14.84008413    12
E-SPACE_L_00021024-219
1 18498U 25364KN  26075.70019676  .00000000  00000+0  00000-0 0  9995
2 18498  81.0000 230.0000 0000000   0.0000 220.5556 14.84008413    15
E-SPACE_L_00021024-220
1 18499U 22756XZ  26075.70019676  .00000000  00000+0  00000-0 0  9998
2 18499  81.0000 230.0000 0000000   0.0000 221.5556 14.84008413    17
E-SPACE_L_00021024-221
1 18500U 24227IV  26075.70019676  .00000000  00000+0  00000-0 0  9996
2 18500  81.0000 230.0000 0000000   0.0000 222.5556 14.84008413    11
E-SPACE_L_00021024-222
1 18501U 26567CB  26075.70019676  .00000000  00000+0  00000-0 0  9996
2 18501  81.0000 230.0000 0000000   0.0000 223.5556 14.84008413    13
E-SPACE_L_00021024-223
1 18502U 24859VS  26075.70019676  .00000000  00000+0  00000-0 0  9999
2 18502  81.0000 230.0000 0000000   0.0000 224.5556 14.84008413    15
E-SPACE_L_00021024-224
1 18503U 26605RE  26075.70019676  .00000000  00000+0  00000-0 0  9991
2 18503  81.0000 230.0000 0000000   0.0000 225.5556 14.84008413    17
E-SPACE_L_00021024-225
1 18504U 22501CN  26075.70019676  .00000000  00000+0  00000-0 0  9993
2 18504  81.0000 230.0000 0000000   0.0000 226.5556 14.84008413    19
E-SPACE_L_00021024-226
1 18505U 25017LA  26075.70019676  .00000000  00000+0  00000-0 0  9999
2 18505  81.0000 230.0000 0000000   0.0000 227.5556 14.84008413    11
E-SPACE_L_00021024-227
1 18506U 22693ZT  26075.70019676  .00000000  00000+0  00000-0 0  9997
2 18506  81.0000 230.0000 0000000   0.0000 228.5556 14.84008413    13
E-SPACE_L_00021024-228
1 18507U 25505ZJ  26075.70019676  .00000000  00000+0  00000-0 0  9993
2 18507  81.0000 230.0000 0000000   0.0000 229.5556 14.84008413    15
E-SPACE_L_00021024-229
1 18508U 25521TY  26075.70019676  .00000000  00000+0  00000-0 0  9992
2 18508  81.0000 230.0000 0000000   0.0000 230.5556 14.84008413    18
E-SPACE_L_00021024-230
1 18509U 25488OL  26075.70019676  .00000000  00000+0  00000-0 0  9995
2 18509  81.0000 230.0000 0000000   0.0000 231.5556 14.84008413    10
E-SPACE_L_00021024-231
1 18510U 23151WW  26075.70019676  .00000000  00000+0  00000-0 0  9992
2 18510  81.0000 230.0000 0000000   0.0000 232.5556 14.84008413    13
E-SPACE_L_00021024-232
1 18511U 25971DL  26075.70019676  .00000000  00000+0  00000-0 0  9995
2 18511  81.0000 230.0000 0000000   0.0000 233.5556 14.84008413    15
E-SPACE_L_00021024-233
1 18512U 23948IF  26075.70019676  .00000000  00000+0  00000-0 0  9998
2 18512  81.0000 230.0000 0000000   0.0000 234.5556 14.84008413    17
E-SPACE_L_00021024-234
1 18513U 26574TY  26075.70019676  .00000000  00000+0  00000-0 0  9997
2 18513  81.0000 230.0000 0000000   0.0000 235.5556 14.84008413    19
E-SPACE_L_00021024-235
1 18514U 26980KY  26075.70019676  .00000000  00000+0  00000-0 0  9999
2 18514  81.0000 230.0000 0000000   0.0000 236.5556 14.84008413    11
E-SPACE_L_00021024-236
1 18515U 25417NL  26075.70019676  .00000000  00000+0  00000-0 0  9994
2 18515  81.0000 230.0000 0000000   0.0000 237.5556 14.84008413    13
E-SPACE_L_00021024-237
1 18516U 22062XX  26075.70019676  .00000000  00000+0  00000-0 0  9998
2 18516  81.0000 230.0000 0000000   0.0000 238.5556 14.84008413    15
E-SPACE_L_00021024-238
1 18517U 23224LZ  26075.70019676  .00000000  00000+0  00000-0 0  9990
2 18517  81.0000 230.0000 0000000   0.0000 239.5556 14.84008413    17
E-SPACE_L_00021024-239
1 18518U 22821VO  26075.70019676  .00000000  00000+0  00000-0 0  9993
2 18518  81.0000 230.0000 0000000   0.0000 240.5556 14.84008413    10
E-SPACE_L_00021024-240
1 18519U 23910EE  26075.70019676  .00000000  00000+0  00000-0 0  9994
2 18519  81.0000 230.0000 0000000   0.0000 241.5556 14.84008413    12
E-SPACE_L_00021024-241
1 18520U 23960OK  26075.70019676  .00000000  00000+0  00000-0 0  9991
2 18520  81.0000 230.0000 0000000   0.0000 242.5556 14.84008413    15
E-SPACE_L_00021024-242
1 18521U 26865FM  26075.70019676  .00000000  00000+0  00000-0 0  9999
2 18521  81.0000 230.0000 0000000   0.0000 243.5556 14.84008413    17
E-SPACE_L_00021024-243
1 18522U 26677ZV  26075.70019676  .00000000  00000+0  00000-0 0  9991
2 18522  81.0000 230.0000 0000000   0.0000 244.5556 14.84008413    19
E-SPACE_L_00021024-244
1 18523U 23893UE  26075.70019676  .00000000  00000+0  00000-0 0  9999
2 18523  81.0000 230.0000 0000000   0.0000 245.5556 14.84008413    11
E-SPACE_L_00021024-245
1 18524U 25684EP  26075.70019676  .00000000  00000+0  00000-0 0  9990
2 18524  81.0000 230.0000 0000000   0.0000 246.5556 14.84008413    13
E-SPACE_L_00021024-246
1 18525U 26460EL  26075.70019676  .00000000  00000+0  00000-0 0  9994
2 18525  81.0000 230.0000 0000000   0.0000 247.5556 14.84008413    15
E-SPACE_L_00021024-247
1 18526U 24559JN  26075.70019676  .00000000  00000+0  00000-0 0  9992
2 18526  81.0000 230.0000 0000000   0.0000 248.5556 14.84008413    17
E-SPACE_L_00021024-248
1 18527U 23413IQ  26075.70019676  .00000000  00000+0  00000-0 0  9991
2 18527  81.0000 230.0000 0000000   0.0000 249.5556 14.84008413    19
E-SPACE_L_00021024-249
1 18528U 22700IA  26075.70019676  .00000000  00000+0  00000-0 0  9990
2 18528  81.0000 230.0000 0000000   0.0000 250.5556 14.84008413    12
E-SPACE_L_00021024-250
1 18529U 22129LI  26075.70019676  .00000000  00000+0  00000-0 0  9996
2 18529  81.0000 230.0000 0000000   0.0000 251.5556 14.84008413    14
E-SPACE_L_00021024-251
1 18530U 25941KJ  26075.70019676  .00000000  00000+0  00000-0 0  9993
2 18530  81.0000 230.0000 0000000   0.0000 252.5556 14.84008413    17
E-SPACE_L_00021024-252
1 18531U 25495XB  26075.70019676  .00000000  00000+0  00000-0 0  9998
2 18531  81.0000 230.0000 0000000   0.0000 253.5556 14.84008413    19
E-SPACE_L_00021024-253
1 18532U 26565YE  26075.70019676  .00000000  00000+0  00000-0 0  9998
2 18532  81.0000 230.0000 0000000   0.0000 254.5556 14.84008413    11
E-SPACE_L_00021024-254
1 18533U 24472WX  26075.70019676  .00000000  00000+0  00000-0 0  9994
2 18533  81.0000 230.0000 0000000   0.0000 255.5556 14.84008413    13
E-SPACE_L_00021024-255
1 18534U 25906TX  26075.70019676  .00000000  00000+0  00000-0 0  9998
2 18534  81.0000 230.0000 0000000   0.0000 256.5556 14.84008413    15
E-SPACE_L_00021024-256
1 18535U 23630VD  26075.70019676  .00000000  00000+0  00000-0 0  9991
2 18535  81.0000 230.0000 0000000   0.0000 257.5556 14.84008413    17
E-SPACE_L_00021024-257
1 18536U 24432KU  26075.70019676  .00000000  00000+0  00000-0 0  9993
2 18536  81.0000 230.0000 0000000   0.0000 258.5556 14.84008413    19
E-SPACE_L_00021024-258
1 18537U 26528ZP  26075.70019676  .00000000  00000+0  00000-0 0  9992
2 18537  81.0000 230.0000 0000000   0.0000 259.5556 14.84008413    11
E-SPACE_L_00021024-259
1 18538U 25102QW  26075.70019676  .00000000  00000+0  00000-0 0  9990
2 18538  81.0000 230.0000 0000000   0.0000 260.5556 14.84008413    14
E-SPACE_L_00021024-260
1 18539U 23186QF  26075.70019676  .00000000  00000+0  00000-0 0  9991
2 18539  81.0000 230.0000 0000000   0.0000 261.5556 14.84008413    16
